IRIDIUM 921             
1 24873U 97034E   24201.21428225  .00043566  00000+0  10292-2 0  9991
2 24873  86.3798 272.2304 0006008 124.2361 235.9463 15.41652325480390
IRIDIUM 26              
1 24903U 97043A   24201.51248668  .00000783  00000+0  26055-3 0  9998
2 24903  86.3937 250.1900 0002455  95.2648 264.8830 14.36441752409442
IRIDIUM 22              
1 24907U 97043E   24200.75660025  .00000845  00000+0  28811-3 0  9993
2 24907  86.3940 253.7699 0002227  92.8641 267.2811 14.35328180408934
DUMMY MASS 1            
1 24925U 97048A   24201.24083331  .00001054  00000+0  11665-3 0  9994
2 24925  86.3347 289.1785 0004728 235.2020 124.8760 14.86292302455908
DUMMY MASS 2            
1 24926U 97048B   24201.21533939  .00001040  00000+0  11577-3 0  9993
2 24926  86.3348 290.7394 0005329 252.6066 107.4575 14.86049945455684
IRIDIUM 29              
1 24944U 97051A   24200.74960234  .00000980  00000+0  33231-3 0  9999
2 24944  86.3950 283.6718 0001954  94.6762 265.4658 14.35780597405413
IRIDIUM 33              
1 24946U 97051C   24201.50369363  .00000587  00000+0  20165-3 0  9997
2 24946  86.3865 282.6049 0010094  86.3945 273.8405 14.34422181405056
IRIDIUM 28              
1 24948U 97051E   24200.73256346  .00000956  00000+0  31777-3 0  9990
2 24948  86.3955 281.3835 0002645  94.9588 265.1911 14.36734892405950
